NORAD_CAT_ID,OBJECT_NAME,OBJECT_TYPE,EPOCH,MEAN_MOTION,ECCENTRICITY,INCLINATION,RA_OF_ASC_NODE,ARG_OF_PERICENTER,MEAN_ANOMALY,BSTAR,MEAN_MOTION_DOT,MEAN_MOTION_DDOT,TLE_LINE0,TLE_LINE1,TLE_LINE2,SEMIMAJOR_AXIS,PERIOD,APOGEE,PERIGEE,DECAYED
53542.0,STARLINK-4489,PAYLOAD,2022-12-29 03:24:21,15.088372199999998,0.0001693,53.2165,260.9522,40.6295,319.4823,5.7577e-06,-1.96e-06,0.0,0 STARLINK-4489,1 53542U 22101R   22363.14191551 -.00000196  00000-0  57577-5 0  9991,2 53542  53.2165 260.9522 0001693  40.6295 319.4823 15.08837220 20192,6917.889,95.438,540.925,538.5830000000002,0.0
53542.0,STARLINK-4489,PAYLOAD,2022-12-30 09:36:41,15.08848962,0.0001827,53.215,255.3023,41.8951,318.2181,0.00063435,9.825e-05,0.0,0 STARLINK-4489,1 53542U 22101R   22364.40047963  .00009825  00000-0  63435-3 0  9993,2 53542  53.2150 255.3023 0001827  41.8951 318.2181 15.08848962 20381,6917.853,95.437,540.982,538.4540000000002,0.0
53542.0,STARLINK-4489,PAYLOAD,2022-12-31 09:27:27,15.08866849,0.0001864,53.2157,250.8422,46.4395,313.6752,0.00049488,7.602e-05,0.0,0 STARLINK-4489,1 53542U 22101R   22365.39406606  .00007602  00000-0  49488-3 0  9998,2 53542  53.2157 250.8422 0001864  46.4395 313.6752 15.08866849 21226,6917.7980000000025,95.436,540.953,538.374,0.0
53542.0,STARLINK-4489,PAYLOAD,2023-01-01 01:21:18,15.08857466,0.0002424999999999,53.2151,247.8682,52.714,307.4073,0.00014864,2.079e-05,0.0,0 STARLINK-4489,1 53542U 22101R   23001.05646269  .00002079  00000-0  14864-3 0  9993,2 53542  53.2151 247.8682 0002425  52.7140 307.4073 15.08857466 20632,6917.8269999999975,95.436,541.37,538.014,0.0
53542.0,STARLINK-4489,PAYLOAD,2023-01-01 09:18:14,15.08832187,0.0001958,53.2157,246.3819,46.825,313.2905,-0.00026361,-4.48e-05,0.0,0 STARLINK-4489,1 53542U 22101R   23001.38767295 -.00004480  00000-0 -26361-3 0  9997,2 53542  53.2157 246.3819 0001958  46.8250 313.2905 15.08832187 20687,6917.904,95.438,541.124,538.415,0.0
53542.0,STARLINK-4489,PAYLOAD,2023-01-02 02:47:28,15.08850957,0.0001733,53.2156,243.1101,37.7834,322.328,3.5271e-05,2.73e-06,0.0,0 STARLINK-4489,1 53542U 22101R   23002.11630265  .00000273  00000-0  35271-4 0  9990,2 53542  53.2156 243.1101 0001733  37.7834 322.3280 15.08850957 20797,6917.847,95.437,540.911,538.513,0.0
53542.0,STARLINK-4489,PAYLOAD,2023-01-02 09:09:01,15.08846676,0.0001995,53.2152,241.9208,41.8205,318.2940000000001,-2.5392e-05,-6.92e-06,0.0,0 STARLINK-4489,1 53542U 22101R   23002.38126489 -.00000692  00000-0 -25392-4 0  9997,2 53542  53.2152 241.9208 0001995  41.8205 318.2940 15.08846676 21527,6917.86,95.437,541.105,538.345,0.0
53542.0,STARLINK-4489,PAYLOAD,2023-01-02 21:52:07,15.08836659,0.0001994,53.2161,239.5419,44.2825,315.8327,-5.3624e-06,-3.74e-06,0.0,0 STARLINK-4489,1 53542U 22101R   23002.91119349 -.00000374  00000-0 -53624-5 0  9990,2 53542  53.2161 239.5419 0001994  44.2825 315.8327 15.08836659 21609,6917.891,95.438,541.135,538.376,0.0
53542.0,STARLINK-4489,PAYLOAD,2023-01-03 04:13:39,15.08834032,0.00021,53.2158,238.3518,44.9915,315.1247,0.00012471,1.697e-05,0.0,0 STARLINK-4489,1 53542U 22101R   23003.17615262  .00001697  00000-0  12471-3 0  9994,2 53542  53.2158 238.3518 0002100  44.9915 315.1247 15.08834032 20953,6917.899,95.438,541.216,538.311,0.0
53542.0,STARLINK-4489,PAYLOAD,2023-01-03 08:59:49,15.08832206,0.0002044,53.2161,237.4592,45.4033,314.7126,3.5506e-05,2.77e-06,0.0,0 STARLINK-4489,1 53542U 22101R   23003.37487658  .00000277  00000-0  35506-4 0  9990,2 53542  53.2161 237.4592 0002044  45.4033 314.7126 15.08832206 21675,6917.904,95.438,541.183,538.355,0.0
53542.0,STARLINK-4489,PAYLOAD,2023-01-04 08:50:36,15.08839456,0.0002171,53.2157,232.999,43.8563,316.2602,6.5445e-05,7.53e-06,0.0,0 STARLINK-4489,1 53542U 22101R   23004.36847454  .00000753  00000-0  65445-4 0  9998,2 53542  53.2157 232.9990 0002171  43.8563 316.2602 15.08839456 21134,6917.882,95.438,541.249,538.245,0.0
53542.0,STARLINK-4489,PAYLOAD,2023-01-04 21:33:40,15.08842032,0.0002150999999999,53.2156,230.6198,44.8477,315.2689,0.00012574,1.714e-05,0.0,0 STARLINK-4489,1 53542U 22101R   23004.89839088  .00001714  00000-0  12574-3 0  9992,2 53542  53.2156 230.6198 0002151  44.8477 315.2689 15.08842032 21904,6917.874,95.437,541.227,538.251,0.0
53542.0,STARLINK-4489,PAYLOAD,2023-01-05 00:44:27,15.08839715,0.0002121999999999,53.2155,230.0255,41.9581,318.1573,8.243600000000001e-05,1.024e-05,0.0,0 STARLINK-4489,1 53542U 22101R   23005.03087391  .00001024  00000-0  82436-4 0  9990,2 53542  53.2155 230.0255 0002122  41.9581 318.1573 15.08839715 21923,6917.880999999999,95.438,541.214,538.278,0.0
53542.0,STARLINK-4489,PAYLOAD,2023-01-05 15:02:55,15.08843701,0.0002218,53.2156,227.3493,38.922,321.1931,8.156899999999999e-05,1.01e-05,0.0,0 STARLINK-4489,1 53542U 22101R   23005.62703083  .00001010  00000-0  81569-4 0  9999,2 53542  53.2156 227.3493 0002218  38.9220 321.1931 15.08843701 22012,6917.869000000002,95.437,541.268,538.2,0.0
53542.0,STARLINK-4489,PAYLOAD,2023-01-06 06:56:48,15.08827157,0.0002127,53.2152,224.3756,40.7234,319.3917,-2.564e-05,-6.96e-06,0.0,0 STARLINK-4489,1 53542U 22101R   23006.28944648 -.00000696  00000-0 -25640-4 0  9995,2 53542  53.2152 224.3756 0002127  40.7234 319.3917 15.08827157 21426,6917.92,95.438,541.256,538.313,0.0
53542.0,STARLINK-4489,PAYLOAD,2023-01-06 14:53:43,15.08833034,0.0002201,53.2162,222.8901,38.9855,321.1296,-3.6204e-05,-8.64e-06,0.0,0 STARLINK-4489,1 53542U 22101R   23006.62064494 -.00000864  00000-0 -36204-4 0  9990,2 53542  53.2162 222.8901 0002201  38.9855 321.1296 15.08833034 22167,6917.901999999999,95.438,541.289,538.244,0.0
53542.0,STARLINK-4489,PAYLOAD,2023-01-07 00:26:02,15.08831347,0.0002191,53.2154,221.1047,40.6447,319.4708,1.4993e-05,-5e-07,0.0,0 STARLINK-4489,1 53542U 22101R   23007.01808592 -.00000050  00000-0  14993-4 0  9996,2 53542  53.2154 221.1047 0002191  40.6447 319.4708 15.08831347 21539,6917.906999999998,95.438,541.288,538.256,0.0
53542.0,STARLINK-4489,PAYLOAD,2023-01-07 21:06:03,15.0883356,0.0002123,53.2157,217.2388,40.5242,319.5908,-5.3986e-05,-1.147e-05,0.0,0 STARLINK-4489,1 53542U 22101R   23007.87921012 -.00001147  00000-0 -53986-4 0  9997,2 53542  53.2157 217.2388 0002123  40.5242 319.5908 15.08833560 22356,6917.9,95.438,541.234,538.2959999999998,0.0
53542.0,STARLINK-4489,PAYLOAD,2023-01-08 12:59:55,15.08825334,0.0002117,53.2156,214.2647,40.1583,319.9565,9.8362e-05,1.277e-05,0.0,0 STARLINK-4489,1 53542U 22101R   23008.54161687  .00001277  00000-0  98362-4 0  9995,2 53542  53.2156 214.2647 0002117  40.1583 319.9565 15.08825334 21764,6917.925,95.438,541.255,538.326,0.0
53542.0,STARLINK-4489,PAYLOAD,2023-01-08 14:35:18,15.08827456,0.0002117,53.2155,213.9675,40.4558,319.6591,0.00010194,1.334e-05,0.0,0 STARLINK-4489,1 53542U 22101R   23008.60785613  .00001334  00000-0  10194-3 0  9993,2 53542  53.2155 213.9675 0002117  40.4558 319.6591 15.08827456 22466,6917.919,95.438,541.248,538.319,0.0
53542.0,STARLINK-4489,PAYLOAD,2023-01-09 14:26:05,15.08837899,0.0002119,53.2153,209.5065,39.8779,320.2369,0.00013187,1.811e-05,0.0,0 STARLINK-4489,1 53542U 22101R   23009.60145363  .00001811  00000-0  13187-3 0  9991,2 53542  53.2153 209.5065 0002119  39.8779 320.2369 15.08837899 21920,6917.887,95.438,541.2180000000002,538.286,0.0
53542.0,STARLINK-4489,PAYLOAD,2023-01-10 12:41:28,15.08849255,0.0002256,53.2161,205.3438,43.2855,316.8314,0.00019482,2.814e-05,0.0,0 STARLINK-4489,1 53542U 22101R   23010.52880536  .00002814  00000-0  19482-3 0  9990,2 53542  53.2161 205.3438 0002256  43.2855 316.8314 15.08849255 22755,6917.852,95.437,541.278,538.156,0.0
53542.0,STARLINK-4489,PAYLOAD,2023-01-10 19:03:01,15.0885156,0.0002265,53.216,204.1543,43.7321,316.385,0.00020525,2.981e-05,0.0,0 STARLINK-4489,1 53542U 22101R   23010.79376286  .00002981  00000-0  20525-3 0  9996,2 53542  53.2160 204.1543 0002265  43.7321 316.3850 15.08851560 22102,6917.845,95.437,541.2769999999998,538.143,0.0
53542.0,STARLINK-4489,PAYLOAD,2023-01-11 06:10:43,15.08850437,0.0002038,53.2168,202.073,38.2102,321.9035,0.0001308,1.795e-05,0.0,0 STARLINK-4489,1 53542U 22101R   23011.25744322  .00001795  00000-0  13080-3 0  9998,2 53542  53.2168 202.0730 0002038  38.2102 321.9035 15.08850437 22861,6917.848000000001,95.437,541.123,538.304,0.0
53542.0,STARLINK-4489,PAYLOAD,2023-01-11 18:53:48,15.08844636,0.0002509,53.2174,199.6929,54.7725,305.3502,4.8653e-05,4.86e-06,0.0,0 STARLINK-4489,1 53542U 22101R   23011.78736983  .00000486  00000-0  48653-4 0  9991,2 53542  53.2174 199.6929 0002509  54.7725 305.3502 15.08844636 22258,6917.866,95.437,541.467,537.996,0.0
53542.0,STARLINK-4489,PAYLOAD,2023-01-12 18:44:36,15.08848185,0.000244,53.2145,195.2324,58.1361,301.9868,-0.00020796,-3.598e-05,0.0,0 STARLINK-4489,1 53542U 22101R   23012.78097327 -.00003598  00000-0 -20796-3 0  9990,2 53542  53.2145 195.2324 0002440  58.1361 301.9868 15.08848185 22402,6917.855,95.437,541.408,538.0319999999998,0.0
53542.0,STARLINK-4489,PAYLOAD,2023-01-12 21:55:22,15.08836455,0.000207,53.2161,194.6389,45.9769,314.1393,-3.7082e-05,-8.78e-06,0.0,0 STARLINK-4489,1 53542U 22101R   23012.91345721 -.00000878  00000-0 -37082-4 0  9994,2 53542  53.2161 194.6389 0002070  45.9769 314.1393 15.08836455 22427,6917.891,95.438,541.188,538.3240000000002,0.0
53542.0,STARLINK-4489,PAYLOAD,2023-01-13 12:13:51,15.08833374,0.0002238,53.2167,191.9623,53.2759,306.8438,0.0001149999999999,1.542e-05,0.0,0 STARLINK-4489,1 53542U 22101R   23013.50961925  .00001542  00000-0  11500-3 0  9993,2 53542  53.2167 191.9623 0002238  53.2759 306.8438 15.08833374 23203,6917.901,95.438,541.314,538.217,0.0
53542.0,STARLINK-4489,PAYLOAD,2023-01-13 21:46:09,15.08841584,0.0002154,53.2161,190.1779,49.6157,310.5023,0.00021351,3.112e-05,0.0,0 STARLINK-4489,1 53542U 22101R   23013.90705883  .00003112  00000-0  21351-3 0  9996,2 53542  53.2161 190.1779 0002154  49.6157 310.5023 15.08841584 23268,6917.876,95.437,541.231,538.25,0.0
